{
  "type": "FeatureCollection",
  "features": [
    {
      "type": "Feature",
      "properties": {
        "norad_id": 22490,
        "name": "SCD 1",
        "group": "resource",
        "lat": -23.146080841631264,
        "lon": 128.8907283497612,
        "alt_km": 769.1210857415635,
        "timestamp": "2025-12-26T04:40:05.444458+00:00",
        "meta_object_name": "SCD 1",
        "meta_object_id": "1993-009B",
        "meta_epoch": "2025-12-25T16:00:22.325184",
        "meta_mean_motion": 14.46007346,
        "meta_eccentricity": 0.0042177,
        "meta_inclination": 24.9675,
        "meta_ra_of_asc_node": 198.8837,
        "meta_arg_of_pericenter": 101.5468,
        "meta_mean_anomaly": 317.8225,
        "meta_ephemeris_type": 0,
        "meta_classification_type": "U",
        "meta_norad_cat_id": 22490,
        "meta_element_set_no": 999,
        "meta_rev_at_epoch": 73597,
        "meta_bstar": 8.5981e-05,
        "meta_mean_motion_dot": 5e-06,
        "meta_mean_motion_ddot": 0,
        "tle_line1": "1 22490U 93009B   25359.66692506  .00000500  00000+0  85981-4 0  9991",
        "tle_line2": "2 22490  24.9675 198.8837 0042177 101.5468 317.8225 14.46007346735976"
      },
      "geometry": {
        "type": "Point",
        "coordinates": [
          128.8907283497612,
          -23.146080841631264
        ]
      }
    },
    {
      "type": "Feature",
      "properties": {
        "norad_id": 25397,
        "name": "TECHSAT 1B (GO-32)",
        "group": "resource",
        "lat": 3.1018748659017943,
        "lon": -16.773808819689126,
        "alt_km": 812.0753053824819,
        "timestamp": "2025-12-26T04:40:05.444485+00:00",
        "meta_object_name": "TECHSAT 1B (GO-32)",
        "meta_object_id": "1998-043D",
        "meta_epoch": "2025-12-25T21:54:35.732448",
        "meta_mean_motion": 14.24380587,
        "meta_eccentricity": 0.00016258,
        "meta_inclination": 98.9934,
        "meta_ra_of_asc_node": 343.4298,
        "meta_arg_of_pericenter": 35.4202,
        "meta_mean_anomaly": 324.7083,
        "meta_ephemeris_type": 0,
        "meta_classification_type": "U",
        "meta_norad_cat_id": 25397,
        "meta_element_set_no": 999,
        "meta_rev_at_epoch": 42666,
        "meta_bstar": 5.7041549e-05,
        "meta_mean_motion_dot": 8.5e-07,
        "meta_mean_motion_ddot": 0,
        "tle_line1": "1 25397U 98043D   25359.91291357  .00000085  00000+0  57042-4 0  9995",
        "tle_line2": "2 25397  98.9934 343.4298 0001625  35.4202 324.7083 14.24380587426666"
      },
      "geometry": {
        "type": "Point",
        "coordinates": [
          -16.773808819689126,
          3.1018748659017943
        ]
      }
    },
    {
      "type": "Feature",
      "properties": {
        "norad_id": 25504,
        "name": "SCD 2",
        "group": "resource",
        "lat": -22.469549187532714,
        "lon": -3.651287980271524,
        "alt_km": 752.4425460767125,
        "timestamp": "2025-12-26T04:40:05.444501+00:00",
        "meta_object_name": "SCD 2",
        "meta_object_id": "1998-060A",
        "meta_epoch": "2025-12-25T12:59:50.528256",
        "meta_mean_motion": 14.45430101,
        "meta_eccentricity": 0.0017068,
        "meta_inclination": 24.9956,
        "meta_ra_of_asc_node": 62.9589,
        "meta_arg_of_pericenter": 88.2247,
        "meta_mean_anomaly": 42.4879,
        "meta_ephemeris_type": 0,
        "meta_classification_type": "U",
        "meta_norad_cat_id": 25504,
        "meta_element_set_no": 999,
        "meta_rev_at_epoch": 43517,
        "meta_bstar": 7.5618e-05,
        "meta_mean_motion_dot": 4.53e-06,
        "meta_mean_motion_ddot": 0,
        "tle_line1": "1 25504U 98060A   25359.54155704  .00000453  00000+0  75618-4 0  9996",
        "tle_line2": "2 25504  24.9956  62.9589 0017068  88.2247  42.4879 14.45430101435172"
      },
      "geometry": {
        "type": "Point",
        "coordinates": [
          -3.651287980271524,
          -22.469549187532714
        ]
      }
    },
    {
      "type": "Feature",
      "properties": {
        "norad_id": 25757,
        "name": "DLR-TUBSAT",
        "group": "resource",
        "lat": 44.61251292401185,
        "lon": 173.76766857077573,
        "alt_km": 704.4831504162175,
        "timestamp": "2025-12-26T04:40:05.444515+00:00",
        "meta_object_name": "DLR-TUBSAT",
        "meta_object_id": "1999-029B",
        "meta_epoch": "2025-12-17T13:22:10.787520",
        "meta_mean_motion": 14.52359578,
        "meta_eccentricity": 0.00141996,
        "meta_inclination": 98.6566,
        "meta_ra_of_asc_node": 336.2196,
        "meta_arg_of_pericenter": 177.8976,
        "meta_mean_anomaly": 182.2281,
        "meta_ephemeris_type": 0,
        "meta_classification_type": "U",
        "meta_norad_cat_id": 25757,
        "meta_element_set_no": 999,
        "meta_rev_at_epoch": 40688,
        "meta_bstar": 3.7650132e-05,
        "meta_mean_motion_dot": 1.05e-06,
        "meta_mean_motion_ddot": 0,
        "tle_line1": "1 25757U 99029B   25351.55706930  .00000105  00000+0  37650-4 0  9996",
        "tle_line2": "2 25757  98.6566 336.2196 0014199 177.8976 182.2281 14.52359578406886"
      },
      "geometry": {
        "type": "Point",
        "coordinates": [
          173.76766857077573,
          44.61251292401185
        ]
      }
    },
    {
      "type": "Feature",
      "properties": {
        "norad_id": 25994,
        "name": "TERRA",
        "group": "resource",
        "lat": -69.16304933334754,
        "lon": -150.2231242614118,
        "alt_km": 699.8896831096245,
        "timestamp": "2025-12-26T04:40:05.444528+00:00",
        "meta_object_name": "TERRA",
        "meta_object_id": "1999-068A",
        "meta_epoch": "2025-12-25T22:56:31.139808",
        "meta_mean_motion": 14.60916109,
        "meta_eccentricity": 0.00034026,
        "meta_inclination": 97.973,
        "meta_ra_of_asc_node": 51.1542,
        "meta_arg_of_pericenter": 68.1467,
        "meta_mean_anomaly": 8.4255,
        "meta_ephemeris_type": 0,
        "meta_classification_type": "U",
        "meta_norad_cat_id": 25994,
        "meta_element_set_no": 999,
        "meta_rev_at_epoch": 38431,
        "meta_bstar": 0.00010182449,
        "meta_mean_motion_dot": 4.54e-06,
        "meta_mean_motion_ddot": 0,
        "tle_line1": "1 25994U 99068A   25359.95591597  .00000454  00000+0  10182-3 0  9992",
        "tle_line2": "2 25994  97.9730  51.1542 0003402  68.1467   8.4255 14.60916109384315"
      },
      "geometry": {
        "type": "Point",
        "coordinates": [
          -150.2231242614118,
          -69.16304933334754
        ]
      }
    },
    {
      "type": "Feature",
      "properties": {
        "norad_id": 27004,
        "name": "MAROC-TUBSAT",
        "group": "resource",
        "lat": 3.900849597730238,
        "lon": -10.45010936089084,
        "alt_km": 991.5101837849879,
        "timestamp": "2025-12-26T04:40:05.444541+00:00",
        "meta_object_name": "MAROC-TUBSAT",
        "meta_object_id": "2001-056D",
        "meta_epoch": "2025-12-25T23:08:45.257280",
        "meta_mean_motion": 13.70253529,
        "meta_eccentricity": 0.00192975,
        "meta_inclination": 99.7917,
        "meta_ra_of_asc_node": 168.6412,
        "meta_arg_of_pericenter": 225.0784,
        "meta_mean_anomaly": 256.5669,
        "meta_ephemeris_type": 0,
        "meta_classification_type": "U",
        "meta_norad_cat_id": 27004,
        "meta_element_set_no": 999,
        "meta_rev_at_epoch": 20246,
        "meta_bstar": 2.8065745e-05,
        "meta_mean_motion_dot": -2.2e-07,
        "meta_mean_motion_ddot": 0,
        "tle_line1": "1 27004U 01056D   25359.96441270 -.00000022  00000+0  28066-4 0  9992",
        "tle_line2": "2 27004  99.7917 168.6412 0019297 225.0784 256.5669 13.70253529202461"
      },
      "geometry": {
        "type": "Point",
        "coordinates": [
          -10.45010936089084,
          3.900849597730238
        ]
      }
    },
    {
      "type": "Feature",
      "properties": {
        "norad_id": 27424,
        "name": "AQUA",
        "group": "resource",
        "lat": 9.992072969234778,
        "lon": 142.78641428171468,
        "alt_km": 688.689197456677,
        "timestamp": "2025-12-26T04:40:05.444552+00:00",
        "meta_object_name": "AQUA",
        "meta_object_id": "2002-022A",
        "meta_epoch": "2025-12-24T19:18:33.414624",
        "meta_mean_motion": 14.61757572,
        "meta_eccentricity": 0.00018094,
        "meta_inclination": 98.4055,
        "meta_ra_of_asc_node": 319.881,
        "meta_arg_of_pericenter": 102.1365,
        "meta_mean_anomaly": 317.5475,
        "meta_ephemeris_type": 0,
        "meta_classification_type": "U",
        "meta_norad_cat_id": 27424,
        "meta_element_set_no": 999,
        "meta_rev_at_epoch": 25779,
        "meta_bstar": 0.00019560508,
        "meta_mean_motion_dot": 9.26e-06,
        "meta_mean_motion_ddot": 0,
        "tle_line1": "1 27424U 02022A   25358.80455341  .00000926  00000+0  19561-3 0  9999",
        "tle_line2": "2 27424  98.4055 319.8810 0001809 102.1365 317.5475 14.61757572257795"
      },
      "geometry": {
        "type": "Point",
        "coordinates": [
          142.78641428171468,
          9.992072969234778
        ]
      }
    }
  ]
}